[{"OBJECT_NAME":"YAOGAN-41","OBJECT_ID":"2023-197A","EPOCH":"2026-03-07T07:39:26.476416","MEAN_MOTION":1.00274066,"ECCENTRICITY":0.00107018,"INCLINATION":3.3174,"RA_OF_ASC_NODE":311.6284,"ARG_OF_PERICENTER":180.2812,"MEAN_ANOMALY":271.2051,"EPHEMERIS_TYPE":0,"CLASSIFICATION_TYPE":"U","NORAD_CAT_ID":58582,"ELEMENT_SET_NO":999,"REV_AT_EPOCH":830,"BSTAR":0,"MEAN_MOTION_DOT":-3.64e-6,"MEAN_MOTION_DDOT":0},{"OBJECT_NAME":"OVZON-3","OBJECT_ID":"2024-003A","EPOCH":"2026-03-07T15:12:57.142944","MEAN_MOTION":1.00274052,"ECCENTRICITY":1.276e-5,"INCLINATION":0.0142,"RA_OF_ASC_NODE":164.9409,"ARG_OF_PERICENTER":250.9459,"MEAN_ANOMALY":37.3738,"EPHEMERIS_TYPE":0,"CLASSIFICATION_TYPE":"U","NORAD_CAT_ID":58698,"ELEMENT_SET_NO":999,"REV_AT_EPOCH":642,"BSTAR":0,"MEAN_MOTION_DOT":5.0e-7,"MEAN_MOTION_DDOT":0},{"OBJECT_NAME":"INSAT-3DS","OBJECT_ID":"2024-033A","EPOCH":"2026-03-07T15:27:52.997760","MEAN_MOTION":1.0027299,"ECCENTRICITY":0.00021609,"INCLINATION":0.0471,"RA_OF_ASC_NODE":259.559,"ARG_OF_PERICENTER":103.3433,"MEAN_ANOMALY":116.4684,"EPHEMERIS_TYPE":0,"CLASSIFICATION_TYPE":"U","NORAD_CAT_ID":58990,"ELEMENT_SET_NO":999,"REV_AT_EPOCH":4605,"BSTAR":0,"MEAN_MOTION_DOT":-1.57e-6,"MEAN_MOTION_DDOT":0},{"OBJECT_NAME":"MERAH PUTIH 2","OBJECT_ID":"2024-035A","EPOCH":"2026-03-07T13:57:38.791008","MEAN_MOTION":1.00272662,"ECCENTRICITY":0.00011742,"INCLINATION":0.0094,"RA_OF_ASC_NODE":142.012,"ARG_OF_PERICENTER":223.6676,"MEAN_ANOMALY":121.9648,"EPHEMERIS_TYPE":0,"CLASSIFICATION_TYPE":"U","NORAD_CAT_ID":58995,"ELEMENT_SET_NO":999,"REV_AT_EPOCH":757,"BSTAR":0,"MEAN_MOTION_DOT":-3.59e-6,"MEAN_MOTION_DDOT":0},{"OBJECT_NAME":"TJS-11","OBJECT_ID":"2024-037A","EPOCH":"2026-03-05T19:48:28.404864","MEAN_MOTION":1.00273707,"ECCENTRICITY":0.000588,"INCLINATION":4.3376,"RA_OF_ASC_NODE":325.8154,"ARG_OF_PERICENTER":43.8363,"MEAN_ANOMALY":211.358,"EPHEMERIS_TYPE":0,"CLASSIFICATION_TYPE":"U","NORAD_CAT_ID":59020,"ELEMENT_SET_NO":999,"REV_AT_EPOCH":754,"BSTAR":0,"MEAN_MOTION_DOT":-3.75e-6,"MEAN_MOTION_DDOT":0},{"OBJECT_NAME":"HULIANWAN GAOGUI-01 (HG-01)","OBJECT_ID":"2024-040A","EPOCH":"2026-03-07T07:13:58.916640","MEAN_MOTION":1.00271143,"ECCENTRICITY":0.00039583,"INCLINATION":0.0591,"RA_OF_ASC_NODE":318.835,"ARG_OF_PERICENTER":46.5945,"MEAN_ANOMALY":301.7324,"EPHEMERIS_TYPE":0,"CLASSIFICATION_TYPE":"U","NORAD_CAT_ID":59069,"ELEMENT_SET_NO":999,"REV_AT_EPOCH":630,"BSTAR":0,"MEAN_MOTION_DOT":1.54e-6,"MEAN_MOTION_DDOT":0},{"OBJECT_NAME":"EUTELSAT 36D","OBJECT_ID":"2024-059A","EPOCH":"2026-03-07T07:14:28.868928","MEAN_MOTION":1.00271207,"ECCENTRICITY":2.1e-5,"INCLINATION":0.0024,"RA_OF_ASC_NODE":167.4958,"ARG_OF_PERICENTER":227.3984,"MEAN_ANOMALY":274.5773,"EPHEMERIS_TYPE":0,"CLASSIFICATION_TYPE":"U","NORAD_CAT_ID":59346,"ELEMENT_SET_NO":999,"REV_AT_EPOCH":712,"BSTAR":0,"MEAN_MOTION_DOT":1.54e-6,"MEAN_MOTION_DDOT":0},{"OBJECT_NAME":"PAKSAT-MM1","OBJECT_ID":"2024-104A","EPOCH":"2026-03-07T05:58:38.618112","MEAN_MOTION":1.00267847,"ECCENTRICITY":0.0002696,"INCLINATION":0.0094,"RA_OF_ASC_NODE":186.5137,"ARG_OF_PERICENTER":156.6043,"MEAN_ANOMALY":309.672,"EPHEMERIS_TYPE":0,"CLASSIFICATION_TYPE":"U","NORAD_CAT_ID":59915,"ELEMENT_SET_NO":999,"REV_AT_EPOCH":650,"BSTAR":0,"MEAN_MOTION_DOT":1.52e-6,"MEAN_MOTION_DDOT":0},{"OBJECT_NAME":"EKRAN 2 DEB","OBJECT_ID":"1977-092N","EPOCH":"2026-03-06T14:29:31.416576","MEAN_MOTION":1.00191051,"ECCENTRICITY":0.00117425,"INCLINATION":4.39,"RA_OF_ASC_NODE":275.3167,"ARG_OF_PERICENTER":223.0929,"MEAN_ANOMALY":355.803,"EPHEMERIS_TYPE":0,"CLASSIFICATION_TYPE":"U","NORAD_CAT_ID":59987,"ELEMENT_SET_NO":999,"REV_AT_EPOCH":6208,"BSTAR":0,"MEAN_MOTION_DOT":-3.57e-6,"MEAN_MOTION_DDOT":0},{"OBJECT_NAME":"ASTRA 1P (SES-24)","OBJECT_ID":"2024-115A","EPOCH":"2026-03-07T07:09:44.324352","MEAN_MOTION":1.00264763,"ECCENTRICITY":0.00049005,"INCLINATION":0.0547,"RA_OF_ASC_NODE":341.2315,"ARG_OF_PERICENTER":340.494,"MEAN_ANOMALY":329.9032,"EPHEMERIS_TYPE":0,"CLASSIFICATION_TYPE":"U","NORAD_CAT_ID":60086,"ELEMENT_SET_NO":999,"REV_AT_EPOCH":617,"BSTAR":0,"MEAN_MOTION_DOT":1.17e-6,"MEAN_MOTION_DDOT":0},{"OBJECT_NAME":"GOES 19","OBJECT_ID":"2024-119A","EPOCH":"2026-03-07T08:18:38.763936","MEAN_MOTION":1.00271645,"ECCENTRICITY":0.0001211,"INCLINATION":0.0453,"RA_OF_ASC_NODE":327.2067,"ARG_OF_PERICENTER":70.7637,"MEAN_ANOMALY":176.5402,"EPHEMERIS_TYPE":0,"CLASSIFICATION_TYPE":"U","NORAD_CAT_ID":60133,"ELEMENT_SET_NO":999,"REV_AT_EPOCH":594,"BSTAR":0,"MEAN_MOTION_DOT":-2.5e-6,"MEAN_MOTION_DDOT":0},{"OBJECT_NAME":"ZHONGXING-3A","OBJECT_ID":"2024-122A","EPOCH":"2026-03-05T21:46:39.691776","MEAN_MOTION":1.0026909,"ECCENTRICITY":0.00023,"INCLINATION":0.0132,"RA_OF_ASC_NODE":130.3203,"ARG_OF_PERICENTER":300.7163,"MEAN_ANOMALY":160.85,"EPHEMERIS_TYPE":0,"CLASSIFICATION_TYPE":"U","NORAD_CAT_ID":60179,"ELEMENT_SET_NO":999,"REV_AT_EPOCH":627,"BSTAR":0,"MEAN_MOTION_DOT":0,"MEAN_MOTION_DDOT":0},{"OBJECT_NAME":"TURKSAT 6A","OBJECT_ID":"2024-127A","EPOCH":"2026-03-06T20:46:38.585568","MEAN_MOTION":1.00275342,"ECCENTRICITY":0.00026214,"INCLINATION":0.0547,"RA_OF_ASC_NODE":233.2671,"ARG_OF_PERICENTER":64.5642,"MEAN_ANOMALY":220.4298,"EPHEMERIS_TYPE":0,"CLASSIFICATION_TYPE":"U","NORAD_CAT_ID":60233,"ELEMENT_SET_NO":999,"REV_AT_EPOCH":599,"BSTAR":0,"MEAN_MOTION_DOT":1.43e-6,"MEAN_MOTION_DDOT":0},{"OBJECT_NAME":"HULIANWAN GAOGUI-02 (HG-02)","OBJECT_ID":"2024-135A","EPOCH":"2026-03-07T03:29:38.764320","MEAN_MOTION":1.00272157,"ECCENTRICITY":0.00078825,"INCLINATION":0.0421,"RA_OF_ASC_NODE":1.2811,"ARG_OF_PERICENTER":343.5379,"MEAN_ANOMALY":25.6371,"EPHEMERIS_TYPE":0,"CLASSIFICATION_TYPE":"U","NORAD_CAT_ID":60327,"ELEMENT_SET_NO":999,"REV_AT_EPOCH":647,"BSTAR":0,"MEAN_MOTION_DOT":-1.75e-6,"MEAN_MOTION_DDOT":0},{"OBJECT_NAME":"ZHONGXING-4A","OBJECT_ID":"2024-151A","EPOCH":"2026-03-07T13:57:38.791008","MEAN_MOTION":1.00274456,"ECCENTRICITY":0.0001357,"INCLINATION":1.577,"RA_OF_ASC_NODE":271.8962,"ARG_OF_PERICENTER":86.2849,"MEAN_ANOMALY":134.7046,"EPHEMERIS_TYPE":0,"CLASSIFICATION_TYPE":"U","NORAD_CAT_ID":60606,"ELEMENT_SET_NO":999,"REV_AT_EPOCH":573,"BSTAR":0,"MEAN_MOTION_DOT":-3.65e-6,"MEAN_MOTION_DDOT":0},{"OBJECT_NAME":"HULIANWAN GAOGUI-03 (HG-03)","OBJECT_ID":"2024-181A","EPOCH":"2026-03-06T20:51:28.531872","MEAN_MOTION":1.00273371,"ECCENTRICITY":3.247e-5,"INCLINATION":0.0408,"RA_OF_ASC_NODE":9.2287,"ARG_OF_PERICENTER":132.2881,"MEAN_ANOMALY":258.8035,"EPHEMERIS_TYPE":0,"CLASSIFICATION_TYPE":"U","NORAD_CAT_ID":61503,"ELEMENT_SET_NO":999,"REV_AT_EPOCH":579,"BSTAR":0,"MEAN_MOTION_DOT":-2.44e-6,"MEAN_MOTION_DDOT":0},{"OBJECT_NAME":"DSN-3 (KIRAMEKI-3)","OBJECT_ID":"2024-198A","EPOCH":"2026-03-07T12:51:38.808576","MEAN_MOTION":1.00273852,"ECCENTRICITY":0.00013601,"INCLINATION":0.018,"RA_OF_ASC_NODE":188.6078,"ARG_OF_PERICENTER":135.3626,"MEAN_ANOMALY":178.219,"EPHEMERIS_TYPE":0,"CLASSIFICATION_TYPE":"U","NORAD_CAT_ID":61733,"ELEMENT_SET_NO":999,"REV_AT_EPOCH":490,"BSTAR":0,"MEAN_MOTION_DOT":-2.51e-6,"MEAN_MOTION_DDOT":0}]
