YAOGAN-41               
1 58582U 23197A   26066.31905644 -.00000364  00000+0  00000+0 0  9994
2 58582   3.3174 311.6284 0010701 180.2812 271.2051  1.00274066  8309
OVZON-3                 
1 58698U 24003A   26066.63399471  .00000050  00000+0  00000+0 0  9990
2 58698   0.0142 164.9409 0000127 250.9459  37.3738  1.00274052  6426
INSAT-3DS               
1 58990U 24033A   26066.64436340 -.00000157  00000+0  00000+0 0  9995
2 58990   0.0471 259.5590 0002160 103.3433 116.4684  1.00272990 46051
MERAH PUTIH 2           
1 58995U 24035A   26066.58169897 -.00000359  00000+0  00000+0 0  9999
2 58995   0.0094 142.0120 0001174 223.6676 121.9648  1.00272662  7572
TJS-11                  
1 59020U 24037A   26064.82532876 -.00000375  00000+0  00000+0 0  9995
2 59020   4.3376 325.8154 0005880  43.8363 211.3580  1.00273707  7540
HULIANWAN GAOGUI-01 (H*)
1 59069U 24040A   26066.30137635  .00000154  00000+0  00000+0 0  9995
2 59069   0.0591 318.8350 0003958  46.5945 301.7324  1.00271143  6300
EUTELSAT 36D            
1 59346U 24059A   26066.30172302  .00000154  00000+0  00000+0 0  9993
2 59346   0.0024 167.4958 0000210 227.3984 274.5773  1.00271207  7128
PAKSAT-MM1              
1 59915U 24104A   26066.24905808  .00000152  00000+0  00000+0 0  9992
2 59915   0.0094 186.5137 0002696 156.6043 309.6720  1.00267847  6506
EKRAN 2 DEB             
1 59987U 77092N   26065.60383584 -.00000357  00000+0  00000+0 0  9993
2 59987   4.3900 275.3167 0011742 223.0929 355.8030  1.00191051 62087
ASTRA 1P (SES-24)       
1 60086U 24115A   26066.29842968  .00000117  00000+0  00000+0 0  9998
2 60086   0.0547 341.2315 0004900 340.4940 329.9032  1.00264763  6175
GOES 19                 
1 60133U 24119A   26066.34628199 -.00000250  00000+0  00000+0 0  9998
2 60133   0.0453 327.2067 0001211  70.7637 176.5402  1.00271645  5948
ZHONGXING-3A            
1 60179U 24122A   26064.90740384  .00000000  00000+0  00000+0 0  9995
2 60179   0.0132 130.3203 0002300 300.7163 160.8500  1.00269090  6270
TURKSAT 6A              
1 60233U 24127A   26065.86572437  .00000143  00000+0  00000+0 0  9997
2 60233   0.0547 233.2671 0002621  64.5642 220.4298  1.00275342  5998
HULIANWAN GAOGUI-02 (H*)
1 60327U 24135A   26066.14558755 -.00000175  00000+0  00000+0 0  9995
2 60327   0.0421   1.2811 0007882 343.5379  25.6371  1.00272157  6475
ZHONGXING-4A            
1 60606U 24151A   26066.58169897 -.00000365  00000+0  00000+0 0  9997
2 60606   1.5770 271.8962 0001357  86.2849 134.7046  1.00274456  5737
HULIANWAN GAOGUI-03 (H*)
1 61503U 24181A   26065.86908023 -.00000244  00000+0  00000+0 0  9995
2 61503   0.0408   9.2287 0000324 132.2881 258.8035  1.00273371  5797
DSN-3 (KIRAMEKI-3)      
1 61733U 24198A   26066.53586584 -.00000251  00000+0  00000+0 0  9995
2 61733   0.0180 188.6078 0001360 135.3626 178.2190  1.00273852  4904
